HST                     
1 20580U 90037B   26115.58527907  .00006480  00000+0  20815-3 0  9998
2 20580  28.4745  79.9164 0001645 280.6914  79.3497 15.30144545780500
POLAR                   
1 23802U 96013A   26114.89147635  .00000032  00000+0  00000+0 0  9994
2 23802  79.8018 227.6689 6416880 210.9026  86.6658  1.29845728144164
SWAS                    
1 25560U 98071A   26115.86209295  .00004444  00000+0  28480-3 0  9999
2 25560  69.8979   2.4190 0007311 312.1745  47.8797 15.09254072489377
CXO                     
1 25867U 99040B   26116.48545806  .00000635  00000+0  00000+0 0  9998
2 25867  55.3936 118.0844 7921578 310.6209 359.8842  0.37809726 17129
XMM-NEWTON              
1 25989U 99066A   26117.48801710 -.00000022  00000+0  00000+0 0  9992
2 25989  64.7433 283.6320 4689370  65.8291   0.0919  0.50130113 22753
TERRA                   
1 25994U 99068A   26115.89994652  .00000374  00000+0  85265-4 0  9991
2 25994  97.9503 167.5082 0003212  56.7601 355.4269 14.61060188401976
CLUSTER II-FM7 (SAMBA)  
1 26410U 00041A   26116.81760381  .00002042  00000+0  00000+0 0  9994
2 26410 149.6713  42.1462 8992296 258.6890   0.4419  0.44809102 20073
CLUSTER II-FM8 (TANGO)  
1 26464U 00045B   26116.63281142  .00002138  00000+0  00000+0 0  9996
2 26464 149.9394  43.1014 8995813 259.4942   0.9419  0.44399945 20062
ODIN                    
1 26702U 01007A   26115.65153452  .00048977  00000+0  53518-3 0  9990
2 26702  97.3973 153.7627 0001966  40.6172 319.5233 15.63195176381169
TIMED                   
1 26998U 01055B   26115.75309725  .00000942  00000+0  89383-4 0  9997
2 26998  74.0685 340.5874 0001777 212.0989 148.0088 14.95166430322982
CORIOLIS                
1 27640U 03001A   26115.77098692  .00000111  00000+0  72886-4 0  9993
2 27640  98.7145 123.4535 0014112   8.9832 351.1594 14.19929625206786
SORCE                   
1 27651U 03004A   26115.66740973  .00002783  00000+0  21142-3 0  9997
2 27651  39.9899 201.2547 0016536  31.4179 328.7599 15.03418116263999
MOST                    
1 27843U 03031D   26115.90634285  .00000078  00000+0  55867-4 0  9992
2 27843  98.7064 124.3592 0010684  48.1551 312.0536 14.21311206183282
SCISAT 1                
1 27858U 03036A   26115.88915932  .00000680  00000+0  91579-4 0  9990
2 27858  73.9288 275.2460 0007514 342.0621  18.0289 14.81386338223707
SWIFT                   
1 28485U 04047A   26115.62828939  .00043357  00000+0  43688-3 0  9997
2 28485  20.5525 228.8093 0001604 312.5282  47.5027 15.63536129178613
HINODE (SOLAR-B)        
1 29479U 06041A   26115.79061109  .00000616  00000+0  11437-3 0  9991
2 29479  98.0580 132.7121 0018973  94.3749 265.9625 14.68544355 47184
SHIJIAN-6 02A (SJ-6 02A)
1 29505U 06046A   26115.90335631  .00004975  00000+0  26011-3 0  9999
2 29505  97.6419 156.5886 0002366 354.6020   5.5187 15.16332980 64346
